NORAD_CAT_ID,OBJECT_NAME,OBJECT_TYPE,EPOCH,MEAN_MOTION,ECCENTRICITY,INCLINATION,RA_OF_ASC_NODE,ARG_OF_PERICENTER,MEAN_ANOMALY,BSTAR,MEAN_MOTION_DOT,MEAN_MOTION_DDOT,TLE_LINE0,TLE_LINE1,TLE_LINE2,SEMIMAJOR_AXIS,PERIOD,APOGEE,PERIGEE,DECAYED
51106.0,STARLINK-3176,PAYLOAD,2022-04-09 08:00:01,15.5872103,0.0001715,53.2174,237.5801,40.4346,147.5498,-0.009965,-0.00715705,0.0,0 STARLINK-3176,1 51106U 22005C   22099.33334491 -.00715705  00000-0 -99650-2 0  9992,2 51106  53.2174 237.5801 0001715  40.4346 147.5498 15.58721030 13956,6769.495,92.383,392.521,390.199,0.0
51106.0,STARLINK-3176,PAYLOAD,2022-04-09 14:00:01,15.58335919,0.0001816,53.2174,236.3697,35.5893,115.8675,-0.010051,-0.00711758,0.0,0 STARLINK-3176,1 51106U 22005C   22099.58334491 -.00711758  00000-0 -10051-1 0  9990,2 51106  53.2174 236.3697 0001816  35.5893 115.8675 15.58335919  3704,6770.61,92.406,393.704,391.245,0.0
51106.0,STARLINK-3176,PAYLOAD,2022-04-09 22:00:00,15.57828895,0.0001548,53.217,234.7551,46.5743,175.6408,-0.010318,-0.00716289,0.0,0 STARLINK-3176,1 51106U 22005C   22099.91667824 -.00716289  00000-0 -10318-1 0  9996,2 51106  53.2170 234.7551 0001548  46.5743 175.6408 15.57828895  3706,6772.079000000002,92.436,394.992,392.896,0.0
51106.0,STARLINK-3176,PAYLOAD,2022-04-10 14:00:01,15.56808643,0.0001791,53.2173,231.5287,29.7273,332.1692,-0.01071,-0.00715577,0.0,0 STARLINK-3176,1 51106U 22005C   22100.58334491 -.00715577  00000-0 -10710-1 0  9998,2 51106  53.2173 231.5287 0001791  29.7273 332.1692 15.56808643 14144,6775.0369999999975,92.497,398.116,395.689,0.0
51106.0,STARLINK-3176,PAYLOAD,2022-04-10 22:00:00,15.56297965,0.0001393,53.217,229.9178,42.9069,27.9109,-0.010887,-0.00713708,0.0,0 STARLINK-3176,1 51106U 22005C   22100.91667824 -.00713708  00000-0 -10887-1 0  9993,2 51106  53.2170 229.9178 0001393  42.9069  27.9109 15.56297965  3700,6776.519,92.527,399.328,397.44,0.0
51106.0,STARLINK-3176,PAYLOAD,2022-04-11 14:00:01,15.55275657,0.0001831,53.2173,226.6987,38.4962,168.3274,-0.011254,-0.00710585,0.0,0 STARLINK-3176,1 51106U 22005C   22101.58334491 -.00710585  00000-0 -11254-1 0  9997,2 51106  53.2173 226.6987 0001831  38.4962 168.3274 15.55275657  3700,6779.488,92.588,402.595,400.112,0.0
51106.0,STARLINK-3176,PAYLOAD,2022-04-11 22:00:00,15.54769555,0.0001450999999999,53.2172,225.0911,48.1368,225.7683,-0.011574,-0.007166,0.0,0 STARLINK-3176,1 51106U 22005C   22101.91667824 -.00716600  00000-0 -11574-1 0  9992,2 51106  53.2172 225.0911 0001451  48.1368 225.7683 15.54769555 14354,6780.96,92.618,403.809,401.841,0.0
51106.0,STARLINK-3176,PAYLOAD,2022-04-12 14:00:01,15.53748709,0.0001991,53.2175,221.8799,25.5569,20.6759,-0.011986,-0.00715006,0.0,0 STARLINK-3176,1 51106U 22005C   22102.58334491 -.00715006  00000-0 -11986-1 0  9993,2 51106  53.2175 221.8799 0001991  25.5569  20.6759 15.53748709  3717,6783.929,92.679,407.145,404.444,0.0
51106.0,STARLINK-3176,PAYLOAD,2022-04-12 22:00:00,15.53075568,0.0001674,53.2156,220.2773,31.1296,80.4298,-0.0082164,-0.00491939,0.0,0 STARLINK-3176,1 51106U 22005C   22102.91667824 -.00491939  00000-0 -82164-2 0  9992,2 51106  53.2156 220.2773 0001674  31.1296  80.4298 15.53075568  3672,6785.889,92.719,408.89,406.619,0.0
51106.0,STARLINK-3176,PAYLOAD,2022-04-13 04:00:00,15.52853713,0.0001629999999999,53.2173,219.0723,33.5694,36.4414,-0.012306,-0.00710792,0.0,0 STARLINK-3176,1 51106U 22005C   22103.16667824 -.00710792  00000-0 -12306-1 0  9991,2 51106  53.2173 219.0723 0001630  33.5694  36.4414 15.52853713 14546,6786.536,92.732,409.507,407.295,0.0
51106.0,STARLINK-3176,PAYLOAD,2022-04-13 14:00:03,15.52079357,0.0001663,53.2162,217.0733,38.6117,201.7278,-0.0094712,-0.00543384,0.0,0 STARLINK-3176,1 51106U 22005C   22103.58336806 -.00543384  00000-0 -94712-2 0  9993,2 51106  53.2162 217.0733 0001663  38.6117 201.7278 15.52079357  3665,6788.793000000002,92.779,411.787,409.529,0.0
51106.0,STARLINK-3176,PAYLOAD,2022-04-13 22:00:00,15.51709297,0.0001453,53.2172,215.4714,46.6168,256.9181,-0.012922,-0.00724751,0.0,0 STARLINK-3176,1 51106U 22005C   22103.91667824 -.00724751  00000-0 -12922-1 0  9998,2 51106  53.2172 215.4714 0001453  46.6168 256.9181 15.51709297  3712,6789.871999999999,92.801,412.724,410.751,0.0
51106.0,STARLINK-3176,PAYLOAD,2022-04-14 06:00:00,15.51081648,0.0001522,53.2159,213.8723,32.9743,333.4149,-0.010097,-0.00557805,0.0,0 STARLINK-3176,1 51106U 22005C   22104.25001157 -.00557805  00000-0 -10097-1 0  9992,2 51106  53.2159 213.8723 0001522  32.9743 333.4149 15.51081648 14713,6791.704000000002,92.838,414.602,412.535,0.0
51106.0,STARLINK-3176,PAYLOAD,2022-04-14 14:00:01,15.50689354,0.0001862,53.2172,212.2753,30.4647,38.0439,-0.013397,-0.00724457,0.0,0 STARLINK-3176,1 51106U 22005C   22104.58334491 -.00724457  00000-0 -13397-1 0  9993,2 51106  53.2172 212.2753 0001862  30.4647  38.0439 15.50689354 14769,6792.849,92.862,415.979,413.449,0.0
51106.0,STARLINK-3176,PAYLOAD,2022-04-14 22:00:00,15.50177683,0.0001607,53.2172,210.6781,40.4335,89.6441,-0.013581,-0.00721308,0.0,0 STARLINK-3176,1 51106U 22005C   22104.91667824 -.00721308  00000-0 -13581-1 0  9996,2 51106  53.2172 210.6781 0001607  40.4335  89.6441 15.50177683  3708,6794.344,92.893,417.301,415.117,0.0
51106.0,STARLINK-3176,PAYLOAD,2022-04-15 14:00:01,15.49014009,0.0002262,53.2175,207.491,26.8009,224.5919,-0.0019114,-0.00104269,0.0,0 STARLINK-3176,1 51106U 22005C   22105.58334491 -.00104269  00000-0 -19114-2 0  9991,2 51106  53.2175 207.4910 0002262  26.8009 224.5919 15.49014009 14929,6797.746,92.962,421.149,418.074,0.0
51106.0,STARLINK-3176,PAYLOAD,2022-04-15 22:00:00,15.48950325,0.0001514,53.2174,205.899,48.5195,262.6937,-8.767700000000001e-05,-5.258e-05,0.0,0 STARLINK-3176,1 51106U 22005C   22105.91667824 -.00005258  00000-0 -87677-4 0  9996,2 51106  53.2174 205.8990 0001514  48.5195 262.6937 15.48950325  3687,6797.932,92.966,420.827,418.768,0.0
51106.0,STARLINK-3176,PAYLOAD,2022-04-16 06:00:00,15.48925032,0.0001919,53.2124,204.3166,55.6535,315.3242,0.0008285,0.00045277,0.0,0 STARLINK-3176,1 51106U 22005C   22106.25001157  .00045277  00000-0  82850-3 0  9995,2 51106  53.2124 204.3166 0001919  55.6535 315.3242 15.48925032 15020,6798.007,92.968,421.176,418.567,0.0
51106.0,STARLINK-3176,PAYLOAD,2022-04-16 14:00:01,15.48937071,0.0002097,53.2126,202.7297,50.8582,19.8853,8.023e-05,3.959e-05,0.0,0 STARLINK-3176,1 51106U 22005C   22106.58334491  .00003959  00000-0  80230-4 0  9993,2 51106  53.2126 202.7297 0002097  50.8582  19.8853 15.48937071 15071,6797.971,92.967,421.262,418.411,0.0
51106.0,STARLINK-3176,PAYLOAD,2022-04-16 22:00:01,15.48964937,0.0002009,53.2128,201.1379,51.4979,79.083,-0.00038703,-0.00021654,0.0,0 STARLINK-3176,1 51106U 22005C   22106.91668981 -.00021654  00000-0 -38703-3 0  9995,2 51106  53.2128 201.1379 0002009  51.4979  79.0830 15.48964937  3663,6797.89,92.965,421.12,418.389,0.0
51106.0,STARLINK-3176,PAYLOAD,2022-04-17 06:00:00,15.48956607,0.0001912,53.2131,199.5461,57.5183,132.7943,0.00063886,0.00034803,0.0,0 STARLINK-3176,1 51106U 22005C   22107.25001157  .00034803  00000-0  63886-3 0  9997,2 51106  53.2131 199.5461 0001912  57.5183 132.7943 15.48956607 15182,6797.9140000000025,92.966,421.079,418.479,0.0
51106.0,STARLINK-3176,PAYLOAD,2022-04-17 14:00:01,15.48961822,0.000211,53.213,197.9572,50.908,199.2132,0.00038167,0.00020578,0.0,0 STARLINK-3176,1 51106U 22005C   22107.58334491  .00020578  00000-0  38167-3 0  9991,2 51106  53.2130 197.9572 0002110  50.9080 199.2132 15.48961822  3652,6797.899,92.965,421.198,418.33,0.0
51106.0,STARLINK-3176,PAYLOAD,2022-04-17 22:00:00,15.48996141,0.0002016,53.213,196.3652,51.5404,258.3892,-0.0004643,-0.00025903,0.0,0 STARLINK-3176,1 51106U 22005C   22107.91667824 -.00025903  00000-0 -46430-3 0  9998,2 51106  53.2130 196.3652 0002016  51.5404 258.3892 15.48996141  3658,6797.7980000000025,92.963,421.034,418.293,0.0
51106.0,STARLINK-3176,PAYLOAD,2022-04-18 08:00:01,15.4900844,0.0002023,53.2132,194.3761,55.0584,59.6589,-0.00017758,-0.00010207,0.0,0 STARLINK-3176,1 51106U 22005C   22108.33334491 -.00010207  00000-0 -17758-3 0  9998,2 51106  53.2132 194.3761 0002023  55.0584  59.6589 15.49008440 15346,6797.762,92.963,421.003,418.252,0.0
51106.0,STARLINK-3176,PAYLOAD,2022-04-18 14:00:01,15.4885221,0.0001821,53.2169,193.171,42.947,26.6311,-0.0090192,-0.00465765,0.0,0 STARLINK-3176,1 51106U 22005C   22108.58334491 -.00465765  00000-0 -90192-2 0  9990,2 51106  53.2169 193.1710 0001821  42.9470  26.6311 15.48852210 15383,6798.22,92.972,421.323,418.847,0.0
51106.0,STARLINK-3176,PAYLOAD,2022-04-18 20:00:01,15.48638017,0.0001422,53.2173,191.9731,42.01600000000001,342.2127,-0.012826,-0.00642553,0.0,0 STARLINK-3176,1 51106U 22005C   22108.83334491 -.00642553  00000-0 -12826-1 0  9997,2 51106  53.2173 191.9731 0001422  42.0160 342.2127 15.48638017 15425,6798.846,92.985,421.67800000000005,419.745,0.0
51106.0,STARLINK-3176,PAYLOAD,2022-04-18 22:00:00,15.48448832,0.0001794,53.2165,191.5761,31.2175,97.8846,-0.010713,-0.0054023999999999,0.0,0 STARLINK-3176,1 51106U 22005C   22108.91667824 -.00540240  00000-0 -10713-1 0  9998,2 51106  53.2165 191.5761 0001794  31.2175  97.8846 15.48448832  3661,6799.4,92.996,422.485,420.045,0.0
51106.0,STARLINK-3176,PAYLOAD,2022-04-19 14:00:01,15.47519157,0.0001735,53.2169,188.3927,41.2829,205.282,-0.010502,-0.00514321,0.0,0 STARLINK-3176,1 51106U 22005C   22109.58334491 -.00514321  00000-0 -10502-1 0  9990,2 51106  53.2169 188.3927 0001735  41.2829 205.2820 15.47519157  3659,6802.123000000001,93.052,425.168,422.8080000000001,0.0
51106.0,STARLINK-3176,PAYLOAD,2022-04-19 22:00:00,15.47157865,0.0001504,53.2175,186.7983,46.1302,258.2954,-0.013557,-0.00644653,0.0,0 STARLINK-3176,1 51106U 22005C   22109.91667824 -.00644653  00000-0 -13557-1 0  9991,2 51106  53.2175 186.7983 0001504  46.1302 258.2954 15.47157865 15590,6803.182,93.074,426.07,424.024,0.0
